[{"OBJECT_NAME":"VIZARD-METEO (RS38S)","OBJECT_ID":"2023-091Z","EPOCH":"2026-03-09T23:01:09.168960","MEAN_MOTION":15.32764799,"ECCENTRICITY":0.00087615,"INCLINATION":97.5192,"RA_OF_ASC_NODE":136.6522,"ARG_OF_PERICENTER":71.7666,"MEAN_ANOMALY":288.4529,"EPHEMERIS_TYPE":0,"CLASSIFICATION_TYPE":"U","NORAD_CAT_ID":57189,"ELEMENT_SET_NO":999,"REV_AT_EPOCH":14947,"BSTAR":0.00066106249,"MEAN_MOTION_DOT":0.00020895,"MEAN_MOTION_DDOT":0},{"OBJECT_NAME":"STARLINK-30301","OBJECT_ID":"2023-124D","EPOCH":"2026-03-09T20:07:07.315104","MEAN_MOTION":15.30192729,"ECCENTRICITY":9.98e-5,"INCLINATION":53.1605,"RA_OF_ASC_NODE":268.0492,"ARG_OF_PERICENTER":102.3567,"MEAN_ANOMALY":257.7546,"EPHEMERIS_TYPE":0,"CLASSIFICATION_TYPE":"U","NORAD_CAT_ID":57666,"ELEMENT_SET_NO":999,"REV_AT_EPOCH":14269,"BSTAR":3.5957601e-5,"MEAN_MOTION_DOT":7.06e-6,"MEAN_MOTION_DDOT":0}]
